GLOBALSTAR M001         
1 25162U 98008A   25243.04447659 -.00000041  00000+0  42361-3 0  9990
2 25162  52.0024 115.3454 0002226  56.4306  91.6186 12.38216669252981
GLOBALSTAR M004         
1 25163U 98008B   25243.57221313 -.00000062  00000+0  22937-3 0  9996
2 25163  51.9992 184.1693 0003439  92.3983  78.7992 12.63401306271210
GLOBALSTAR M002         
1 25164U 98008C   25243.20725511 -.00000106  00000+0 -58545-3 0  9990
2 25164  52.0023  52.1021 0000642 307.2185  52.8576 11.61511925192783
GLOBALSTAR M003         
1 25165U 98008D   25243.48211772 -.00000177  00000+0 -93725-3 0  9997
2 25165  51.9986 319.9902 0008612  85.1750 288.4443 12.12063863242356
GLOBALSTAR M014         
1 25306U 98023A   25243.49864328 -.00000058  00000+0  36770-3 0  9997
2 25306  51.9872 333.0165 0001478 129.1843 243.7055 11.65481655199950
GLOBALSTAR M006         
1 25307U 98023B   25243.56402127 -.00000058  00000+0  35321-3 0  9992
2 25307  51.9963  28.1365 0002473 231.4418 207.3516 11.58175243225567
GLOBALSTAR M015         
1 25308U 98023C   25243.42285506 -.00000111  00000+0 -86440-3 0  9997
2 25308  51.9812 130.4095 0011896 208.7275 322.0811 11.48859863202727
GLOBALSTAR M008         
1 25309U 98023D   25243.58754950 -.00000092  00000+0  35939-4 0  9994
2 25309  52.0001 339.4508 0002234 345.6068  27.0049 12.36071350247175
